NORAD_CAT_ID,OBJECT_NAME,OBJECT_TYPE,EPOCH,MEAN_MOTION,ECCENTRICITY,INCLINATION,RA_OF_ASC_NODE,ARG_OF_PERICENTER,MEAN_ANOMALY,BSTAR,MEAN_MOTION_DOT,MEAN_MOTION_DDOT,TLE_LINE0,TLE_LINE1,TLE_LINE2,SEMIMAJOR_AXIS,PERIOD,APOGEE,PERIGEE,DECAYED
54080.0,STARLINK-5160,PAYLOAD,2024-07-24 18:53:12,15.08847513,0.000197,53.2166,120.9275,141.8392,218.274,-0.00012138,-2.22e-05,0.0,0 STARLINK-5160,1 54080U 22136AF  24206.78694655 -.00002220  00000-0 -12138-3 0  9991,2 54080  53.2166 120.9275 0001970 141.8392 218.2740 15.08847513 97881,6917.857,95.437,541.085,538.36,0.0
54080.0,STARLINK-5160,PAYLOAD,2024-07-25 01:14:44,15.08851392,0.0001457,53.2172,119.74,92.6708,267.4451,2.6533e-05,1.34e-06,0.0,0 STARLINK-5160,1 54080U 22136AF  24207.05190147  .00000134  00000-0  26533-4 0  9994,2 54080  53.2172 119.7400 0001457  92.6708 267.4451 15.08851392 97928,6917.846,95.437,540.718,538.703,0.0
54080.0,STARLINK-5160,PAYLOAD,2024-07-25 18:43:59,15.0883471,0.0001494,53.2172,116.4689,113.362,246.753,7.5696e-05,9.17e-06,0.0,0 STARLINK-5160,1 54080U 22136AF  24207.78055148  .00000917  00000-0  75696-4 0  9998,2 54080  53.2172 116.4689 0001494 113.3620 246.7530 15.08834710 98032,6917.897,95.438,540.795,538.728,0.0
54080.0,STARLINK-5160,PAYLOAD,2024-07-25 21:54:46,15.08831474,0.0001596,53.2179,115.8762,107.6067,252.5099,6.293e-05,7.13e-06,0.0,0 STARLINK-5160,1 54080U 22136AF  24207.91303393  .00000713  00000-0  62930-4 0  9992,2 54080  53.2179 115.8762 0001596 107.6067 252.5099 15.08831474 97575,6917.906,95.438,540.876,538.667,0.0
54080.0,STARLINK-5160,PAYLOAD,2024-07-26 04:16:18,15.08838827,0.0001275,53.2174,114.6847,104.1383,255.9751,9.8935e-05,1.287e-05,0.0,0 STARLINK-5160,1 54080U 22136AF  24208.17798882  .00001287  00000-0  98935-4 0  9993,2 54080  53.2174 114.6847 0001275 104.1383 255.9751 15.08838827 97614,6917.884,95.438,540.631,538.867,0.0
54080.0,STARLINK-5160,PAYLOAD,2024-07-26 18:34:46,15.08845867,0.0001321,53.2176,112.0082,96.4225,263.6918,2.6771e-05,1.38e-06,0.0,0 STARLINK-5160,1 54080U 22136AF  24208.77414730  .00000138  00000-0  26771-4 0  9999,2 54080  53.2176 112.0082 0001321  96.4225 263.6918 15.08845867 98185,6917.862,95.437,540.641,538.814,0.0
54080.0,STARLINK-5160,PAYLOAD,2024-07-26 23:20:54,15.08855804,0.000128,53.2168,111.1172,100.7493,259.3643,0.00010222,1.34e-05,0.0,0 STARLINK-5160,1 54080U 22136AF  24208.97285757  .00001340  00000-0  10222-3 0  9995,2 54080  53.2168 111.1172 0001280 100.7493 259.3643 15.08855804 98219,6917.832,95.437,540.583,538.812,0.0
54080.0,STARLINK-5160,PAYLOAD,2024-07-27 10:28:36,15.08852211,5.71e-05,53.214,109.0355,127.5211,232.5833,4.708e-07,-2.8e-06,0.0,0 STARLINK-5160,1 54080U 22136AF  24209.43653754 -.00000280  00000-0  47080-6 0  9991,2 54080  53.2140 109.0355 0000571 127.5211 232.5833 15.08852211 98285,6917.843,95.437,540.103,539.313,0.0
54080.0,STARLINK-5160,PAYLOAD,2024-07-27 21:36:21,15.08823244,0.0001519,53.217,106.9554,89.9973,270.1193,6.8353e-07,-2.77e-06,0.0,0 STARLINK-5160,1 54080U 22136AF  24209.90024316 -.00000277  00000-0  68353-6 0  9991,2 54080  53.2170 106.9554 0001519  89.9973 270.1193 15.08823244 97879,6917.932,95.439,540.847,538.746,0.0
54080.0,STARLINK-5160,PAYLOAD,2024-07-28 00:47:06,15.08834948,0.0001378,53.2173,106.3581,84.9729,275.142,2.3005e-05,7.8e-07,0.0,0 STARLINK-5160,1 54080U 22136AF  24210.03271597  .00000078  00000-0  23005-4 0  9993,2 54080  53.2173 106.3581 0001378  84.9729 275.1420 15.08834948 98370,6917.896,95.438,540.714,538.808,0.0
54080.0,STARLINK-5160,PAYLOAD,2024-07-28 23:02:30,15.08837856,0.0001282,53.2155,102.1957,84.2519,275.8619,2.635e-05,1.31e-06,0.0,0 STARLINK-5160,1 54080U 22136AF  24210.96007847  .00000131  00000-0  26350-4 0  9996,2 54080  53.2155 102.1957 0001282  84.2519 275.8619 15.08837856 98036,6917.887,95.438,540.639,538.865,0.0
54080.0,STARLINK-5160,PAYLOAD,2024-07-29 10:10:12,15.08841379,0.0001286,53.2156,100.1144,88.7127,271.4013,7.2102e-05,8.6e-06,0.0,0 STARLINK-5160,1 54080U 22136AF  24211.42375414  .00000860  00000-0  72102-4 0  9991,2 54080  53.2156 100.1144 0001286  88.7127 271.4013 15.08841379 98586,6917.876,95.437,540.631,538.852,0.0
54080.0,STARLINK-5160,PAYLOAD,2024-07-29 21:17:55,15.08810821,0.0001163,53.2153,98.034,90.8157,269.2968,0.00041925,6.386e-05,0.0,0 STARLINK-5160,1 54080U 22136AF  24211.88744902  .00006386  00000-0  41925-3 0  9990,2 54080  53.2153  98.0340 0001163  90.8157 269.2968 15.08810821 98657,6917.97,95.439,540.639,539.03,0.0
54080.0,STARLINK-5160,PAYLOAD,2024-07-29 22:53:17,15.08839009,0.0001593,53.216,97.7342,91.6123,268.5051,0.00011631,1.563e-05,0.0,0 STARLINK-5160,1 54080U 22136AF  24211.95367818  .00001563  00000-0  11631-3 0  9998,2 54080  53.2160  97.7342 0001593  91.6123 268.5051 15.08839009 98184,6917.883,95.438,540.85,538.646,0.0
54080.0,STARLINK-5160,PAYLOAD,2024-07-30 10:00:59,15.08839867,0.0001589,53.2158,95.653,92.0132,268.1042,0.00011948,1.614e-05,0.0,0 STARLINK-5160,1 54080U 22136AF  24212.41735827  .00001614  00000-0  11948-3 0  9997,2 54080  53.2158  95.6530 0001589  92.0132 268.1042 15.08839867 98253,6917.881,95.438,540.845,538.647,0.0
54080.0,STARLINK-5160,PAYLOAD,2024-07-30 22:44:04,15.08844916,0.0001541,53.2152,93.2737,96.3814,263.7354,0.00036287,5.493e-05,0.0,0 STARLINK-5160,1 54080U 22136AF  24212.94727002  .00005493  00000-0  36287-3 0  9993,2 54080  53.2152  93.2737 0001541  96.3814 263.7354 15.08844916 98339,6917.865,95.437,540.796,538.664,0.0
54080.0,STARLINK-5160,PAYLOAD,2024-07-31 20:59:29,15.08832095,0.0001402,53.2161,89.1157,84.5704,275.5448,1.2098e-05,-9.5e-07,0.0,0 STARLINK-5160,1 54080U 22136AF  24213.87464374 -.00000095  00000-0  12098-4 0  9995,2 54080  53.2161  89.1157 0001402  84.5704 275.5448 15.08832095 98950,6917.905,95.438,540.739,538.8,0.0
54080.0,STARLINK-5160,PAYLOAD,2024-07-31 22:34:52,15.08837019,0.0001453,53.2157,88.8145,92.6622,267.4536,-4.0527e-06,-3.52e-06,0.0,0 STARLINK-5160,1 54080U 22136AF  24213.94088143 -.00000352  00000-0 -40527-5 0  9995,2 54080  53.2157  88.8145 0001453  92.6622 267.4536 15.08837019 98480,6917.89,95.438,540.76,538.749,0.0
54080.0,STARLINK-5160,PAYLOAD,2024-08-01 20:50:14,15.08859549,0.0001336,53.2163,84.6528,80.0066,280.1077,0.00011116,1.483e-05,0.0,0 STARLINK-5160,1 54080U 22136AF  24214.86822173  .00001483  00000-0  11116-3 0  9990,2 54080  53.2163  84.6528 0001336  80.0066 280.1077 15.08859549 99103,6917.821,95.436,540.61,538.761,0.0
54080.0,STARLINK-5160,PAYLOAD,2024-08-01 22:25:37,15.08860583,0.0001335,53.2167,84.3553,81.3448,278.7696,0.00018372,2.639e-05,0.0,0 STARLINK-5160,1 54080U 22136AF  24214.93445907  .00002639  00000-0  18372-3 0  9999,2 54080  53.2167  84.3553 0001335  81.3448 278.7696 15.08860583 98636,6917.817,95.436,540.606,538.759,0.0
54080.0,STARLINK-5160,PAYLOAD,2024-08-02 07:57:57,15.08842506,0.0001118,53.2154,82.5711,79.807,280.3048,0.00012869,1.761e-05,0.0,0 STARLINK-5160,1 54080U 22136AF  24215.33191047  .00001761  00000-0  12869-3 0  9997,2 54080  53.2154  82.5711 0001118  79.8070 280.3048 15.08842506 99175,6917.873,95.437,540.511,538.964,0.0
54080.0,STARLINK-5160,PAYLOAD,2024-08-02 20:41:03,15.08827776,0.0001781,53.2181,80.1991,117.1611,242.9563,-3.3906e-05,-8.27e-06,0.0,0 STARLINK-5160,1 54080U 22136AF  24215.86184817 -.00000827  00000-0 -33906-4 0  9992,2 54080  53.2181  80.1991 0001781 117.1611 242.9563 15.08827776 99259,6917.918,95.438,541.015,538.551,0.0
54080.0,STARLINK-5160,PAYLOAD,2024-08-02 22:16:27,15.08825169,0.0001546,53.2168,79.8972,106.0264,254.0898,-8.9685e-06,-4.31e-06,0.0,0 STARLINK-5160,1 54080U 22136AF  24215.92809037 -.00000431  00000-0 -89685-5 0  9994,2 54080  53.2168  79.8972 0001546 106.0264 254.0898 15.08825169 98784,6917.926,95.438,540.86,538.721,0.0
54080.0,STARLINK-5160,PAYLOAD,2024-08-03 07:48:44,15.0883645,0.0001592,53.2169,78.1118,95.8079,264.3095,2.6212e-05,1.29e-06,0.0,0 STARLINK-5160,1 54080U 22136AF  24216.32552040  .00000129  00000-0  26212-4 0  9996,2 54080  53.2169  78.1118 0001592  95.8079 264.3095 15.08836450 99328,6917.891,95.438,540.858,538.655,0.0
54080.0,STARLINK-5160,PAYLOAD,2024-08-03 22:07:12,15.08850268,0.0001537,53.2162,75.4345,93.3341,266.7827,0.00053769,8.282e-05,0.0,0 STARLINK-5160,1 54080U 22136AF  24216.92167779  .00008282  00000-0  53769-3 0  9997,2 54080  53.2162  75.4345 0001537  93.3341 266.7827 15.08850268 98935,6917.849,95.437,540.777,538.651,0.0
54080.0,STARLINK-5160,PAYLOAD,2024-08-03 23:42:36,15.08854747,0.0001597,53.2162,75.1375,97.4484,262.6689,0.00098333,0.00015403,0.0,0 STARLINK-5160,1 54080U 22136AF  24216.98791915  .00015403  00000-0  98333-3 0  9997,2 54080  53.2162  75.1375 0001597  97.4484 262.6689 15.08854747 99426,6917.835,95.437,540.805,538.596,0.0
54080.0,STARLINK-5160,PAYLOAD,2024-08-04 07:39:31,15.08847196,0.0001645,53.2161,73.6456,82.5751,277.5428,0.00044391,6.785e-05,0.0,0 STARLINK-5160,1 54080U 22136AF  24217.31911857  .00006785  00000-0  44391-3 0  9992,2 54080  53.2161  73.6456 0001645  82.5751 277.5428 15.08847196 99475,6917.858,95.437,540.861,538.585,0.0
54080.0,STARLINK-5160,PAYLOAD,2024-08-04 18:47:13,15.08842826,0.0001749,53.2165,71.5654,81.7625,278.3566,0.00020907,3.041e-05,0.0,0 STARLINK-5160,1 54080U 22136AF  24217.78279934  .00003041  00000-0  20907-3 0  9995,2 54080  53.2165  71.5654 0001749  81.7625 278.3566 15.08842826 99547,6917.872,95.437,540.947,538.527,0.0
54080.0,STARLINK-5160,PAYLOAD,2024-08-04 21:57:59,15.08853332,0.00019,53.215,70.9704,79.8405,280.2801,0.00038087,5.781e-05,0.0,0 STARLINK-5160,1 54080U 22136AF  24217.91527626  .00005781  00000-0  38087-3 0  9995,2 54080  53.2150  70.9704 0001900  79.8405 280.2801 15.08853332 99080,6917.84,95.437,541.019,538.39,0.0
54080.0,STARLINK-5160,PAYLOAD,2024-08-04 23:33:22,15.08855668,0.0001995,53.2151,70.6735,80.1813,279.9404,0.00041883,6.387e-05,0.0,0 STARLINK-5160,1 54080U 22136AF  24217.98151531  .00006387  00000-0  41883-3 0  9991,2 54080  53.2151  70.6735 0001995  80.1813 279.9404 15.08855668 99576,6917.832,95.437,541.078,538.317,0.0
